[{"OBJECT_NAME":"STARLINK-32147","OBJECT_ID":"2024-120T","EPOCH":"2026-03-09T21:29:16.020384","MEAN_MOTION":15.30195846,"ECCENTRICITY":4.387e-5,"INCLINATION":53.1603,"RA_OF_ASC_NODE":319.2488,"ARG_OF_PERICENTER":54.7945,"MEAN_ANOMALY":305.3097,"EPHEMERIS_TYPE":0,"CLASSIFICATION_TYPE":"U","NORAD_CAT_ID":60152,"ELEMENT_SET_NO":999,"REV_AT_EPOCH":9640,"BSTAR":0.00022361936,"MEAN_MOTION_DOT":6.269e-5,"MEAN_MOTION_DDOT":0},{"OBJECT_NAME":"GB 3","OBJECT_ID":"1983-056G","EPOCH":"2026-03-09T13:52:06.501792","MEAN_MOTION":13.81302374,"ECCENTRICITY":0.0733296,"INCLINATION":63.3073,"RA_OF_ASC_NODE":158.0315,"ARG_OF_PERICENTER":130.105,"MEAN_ANOMALY":236.6668,"EPHEMERIS_TYPE":0,"CLASSIFICATION_TYPE":"U","NORAD_CAT_ID":14180,"ELEMENT_SET_NO":999,"REV_AT_EPOCH":34523,"BSTAR":0.00052827,"MEAN_MOTION_DOT":4.843e-5,"MEAN_MOTION_DDOT":0}]
